[{"OBJECT_NAME":"STARLINK-6173","OBJECT_ID":"2023-061M","EPOCH":"2026-03-09T22:00:01.999584","MEAN_MOTION":15.1346808,"ECCENTRICITY":0.00019643,"INCLINATION":43.0004,"RA_OF_ASC_NODE":195.625,"ARG_OF_PERICENTER":302.6936,"MEAN_ANOMALY":139.781,"EPHEMERIS_TYPE":0,"CLASSIFICATION_TYPE":"U","NORAD_CAT_ID":56385,"ELEMENT_SET_NO":999,"REV_AT_EPOCH":577,"BSTAR":0.0046220395,"MEAN_MOTION_DOT":0.00084928,"MEAN_MOTION_DDOT":0},{"OBJECT_NAME":"CONNECTA IOT-13","OBJECT_ID":"2026-004AP","EPOCH":"2026-03-09T21:30:41.110560","MEAN_MOTION":15.17636182,"ECCENTRICITY":0.00083464,"INCLINATION":97.4574,"RA_OF_ASC_NODE":69.4172,"ARG_OF_PERICENTER":345.5859,"MEAN_ANOMALY":14.5136,"EPHEMERIS_TYPE":0,"CLASSIFICATION_TYPE":"U","NORAD_CAT_ID":67400,"ELEMENT_SET_NO":999,"REV_AT_EPOCH":869,"BSTAR":0.00022273325,"MEAN_MOTION_DOT":4.418e-5,"MEAN_MOTION_DDOT":0}]
